CCSDS_OMM_VERS = 2.0
CREATION_DATE  = 
ORIGINATOR     = 

OBJECT_NAME    = IDEFIX & ARIANE 42P R/B
OBJECT_ID      = 2002-021B
CENTER_NAME    = EARTH
REF_FRAME      = TEME
TIME_SYSTEM    = UTC
MEAN_ELEMENT_THEORY = SGP/SGP4

EPOCH          = 2026-02-01T20:04:22.255680
MEAN_MOTION    = 14.30998426
ECCENTRICITY   = .00108327
INCLINATION    = 98.5836
RA_OF_ASC_NODE = 331.8796
ARG_OF_PERICENTER = 296.3770
MEAN_ANOMALY   = 63.6300

EPHEMERIS_TYPE = 0
CLASSIFICATION_TYPE = U
NORAD_CAT_ID   = 27422
ELEMENT_SET_NO = 999
REV_AT_EPOCH   = 23889
BSTAR          = .13899513E-3
MEAN_MOTION_DOT = .322E-5
MEAN_MOTION_DDOT = 0

CCSDS_OMM_VERS = 2.0
CREATION_DATE  = 
ORIGINATOR     = 

OBJECT_NAME    = AQUA
OBJECT_ID      = 2002-022A
CENTER_NAME    = EARTH
REF_FRAME      = TEME
TIME_SYSTEM    = UTC
MEAN_ELEMENT_THEORY = SGP/SGP4

EPOCH          = 2026-02-01T22:51:37.560384
MEAN_MOTION    = 14.61882673
ECCENTRICITY   = .00017128
INCLINATION    = 98.4110
RA_OF_ASC_NODE = 359.6849
ARG_OF_PERICENTER = 59.1978
MEAN_ANOMALY   = 337.0718

EPHEMERIS_TYPE = 0
CLASSIFICATION_TYPE = U
NORAD_CAT_ID   = 27424
ELEMENT_SET_NO = 999
REV_AT_EPOCH   = 26351
BSTAR          = .22881446E-3
MEAN_MOTION_DOT = .1095E-4
MEAN_MOTION_DDOT = 0

CCSDS_OMM_VERS = 2.0
CREATION_DATE  = 
ORIGINATOR     = 

OBJECT_NAME    = CZ-4B R/B
OBJECT_ID      = 2002-024C
CENTER_NAME    = EARTH
REF_FRAME      = TEME
TIME_SYSTEM    = UTC
MEAN_ELEMENT_THEORY = SGP/SGP4

EPOCH          = 2026-02-01T19:07:31.463616
MEAN_MOTION    = 14.14540698
ECCENTRICITY   = .00510099
INCLINATION    = 98.8915
RA_OF_ASC_NODE = 86.3709
ARG_OF_PERICENTER = 124.4368
MEAN_ANOMALY   = 350.4889

EPHEMERIS_TYPE = 0
CLASSIFICATION_TYPE = U
NORAD_CAT_ID   = 27432
ELEMENT_SET_NO = 999
REV_AT_EPOCH   = 22416
BSTAR          = .52713687E-4
MEAN_MOTION_DOT = .58E-6
MEAN_MOTION_DDOT = 0

CCSDS_OMM_VERS = 2.0
CREATION_DATE  = 
ORIGINATOR     = 

OBJECT_NAME    = MIDORI II (ADEOS-II)
OBJECT_ID      = 2002-056A
CENTER_NAME    = EARTH
REF_FRAME      = TEME
TIME_SYSTEM    = UTC
MEAN_ELEMENT_THEORY = SGP/SGP4

EPOCH          = 2026-02-01T21:22:54.640416
MEAN_MOTION    = 14.29255768
ECCENTRICITY   = .00021043
INCLINATION    = 98.7707
RA_OF_ASC_NODE = 351.1363
ARG_OF_PERICENTER = 93.1358
MEAN_ANOMALY   = 267.0064

EPHEMERIS_TYPE = 0
CLASSIFICATION_TYPE = U
NORAD_CAT_ID   = 27597
ELEMENT_SET_NO = 999
REV_AT_EPOCH   = 20518
BSTAR          = .15135038E-3
MEAN_MOTION_DOT = .34E-5
MEAN_MOTION_DDOT = 0

CCSDS_OMM_VERS = 2.0
CREATION_DATE  = 
ORIGINATOR     = 

OBJECT_NAME    = H-2A R/B
OBJECT_ID      = 2002-056E
CENTER_NAME    = EARTH
REF_FRAME      = TEME
TIME_SYSTEM    = UTC
MEAN_ELEMENT_THEORY = SGP/SGP4

EPOCH          = 2026-02-01T21:46:07.428288
MEAN_MOTION    = 14.33732952
ECCENTRICITY   = .00690063
INCLINATION    = 98.3137
RA_OF_ASC_NODE = 354.6493
ARG_OF_PERICENTER = 268.3274
MEAN_ANOMALY   = 156.5106

EPHEMERIS_TYPE = 0
CLASSIFICATION_TYPE = U
NORAD_CAT_ID   = 27601
ELEMENT_SET_NO = 999
REV_AT_EPOCH   = 20898
BSTAR          = .13338234E-3
MEAN_MOTION_DOT = .338E-5
MEAN_MOTION_DDOT = 0

CCSDS_OMM_VERS = 2.0
CREATION_DATE  = 
ORIGINATOR     = 

OBJECT_NAME    = CZ-4B R/B
OBJECT_ID      = 2003-049C
CENTER_NAME    = EARTH
REF_FRAME      = TEME
TIME_SYSTEM    = UTC
MEAN_ELEMENT_THEORY = SGP/SGP4

EPOCH          = 2026-02-01T23:13:33.974112
MEAN_MOTION    = 14.54977430
ECCENTRICITY   = .00478759
INCLINATION    = 98.6836
RA_OF_ASC_NODE = 26.4827
ARG_OF_PERICENTER = 342.1313
MEAN_ANOMALY   = 17.8197

EPHEMERIS_TYPE = 0
CLASSIFICATION_TYPE = U
NORAD_CAT_ID   = 28059
ELEMENT_SET_NO = 999
REV_AT_EPOCH   = 18140
BSTAR          = .12832217E-3
MEAN_MOTION_DOT = .509E-5
MEAN_MOTION_DDOT = 0

CCSDS_OMM_VERS = 2.0
CREATION_DATE  = 
ORIGINATOR     = 

OBJECT_NAME    = CZ-2C R/B
OBJECT_ID      = 2004-012C
CENTER_NAME    = EARTH
REF_FRAME      = TEME
TIME_SYSTEM    = UTC
MEAN_ELEMENT_THEORY = SGP/SGP4

EPOCH          = 2026-02-01T17:49:43.485024
MEAN_MOTION    = 15.60419961
ECCENTRICITY   = .00166173
INCLINATION    = 97.7325
RA_OF_ASC_NODE = 94.7330
ARG_OF_PERICENTER = 84.2969
MEAN_ANOMALY   = 276.0181

EPHEMERIS_TYPE = 0
CLASSIFICATION_TYPE = U
NORAD_CAT_ID   = 28222
ELEMENT_SET_NO = 999
REV_AT_EPOCH   = 19866
BSTAR          = .50811624E-3
MEAN_MOTION_DOT = .42006E-3
MEAN_MOTION_DDOT = 0

CCSDS_OMM_VERS = 2.0
CREATION_DATE  = 
ORIGINATOR     = 

OBJECT_NAME    = SL-16 R/B
OBJECT_ID      = 2004-021B
CENTER_NAME    = EARTH
REF_FRAME      = TEME
TIME_SYSTEM    = UTC
MEAN_ELEMENT_THEORY = SGP/SGP4

EPOCH          = 2026-02-01T23:01:18.956352
MEAN_MOTION    = 14.14589405
ECCENTRICITY   = .0002724
INCLINATION    = 71.0012
RA_OF_ASC_NODE = 307.4784
ARG_OF_PERICENTER = 99.0832
MEAN_ANOMALY   = 261.0599

EPHEMERIS_TYPE = 0
CLASSIFICATION_TYPE = U
NORAD_CAT_ID   = 28353
ELEMENT_SET_NO = 999
REV_AT_EPOCH   = 11778
BSTAR          = -.54023183E-4
MEAN_MOTION_DOT = -.151E-5
MEAN_MOTION_DDOT = 0

CCSDS_OMM_VERS = 2.0
CREATION_DATE  = 
ORIGINATOR     = 

OBJECT_NAME    = CZ-4B R/B
OBJECT_ID      = 2004-035C
CENTER_NAME    = EARTH
REF_FRAME      = TEME
TIME_SYSTEM    = UTC
MEAN_ELEMENT_THEORY = SGP/SGP4

EPOCH          = 2026-02-01T15:30:54.023040
MEAN_MOTION    = 15.28379261
ECCENTRICITY   = .00343405
INCLINATION    = 97.3549
RA_OF_ASC_NODE = 67.3303
ARG_OF_PERICENTER = 96.4370
MEAN_ANOMALY   = 264.0782

EPHEMERIS_TYPE = 0
CLASSIFICATION_TYPE = U
NORAD_CAT_ID   = 28415
ELEMENT_SET_NO = 999
REV_AT_EPOCH   = 17440
BSTAR          = .26858811E-3
MEAN_MOTION_DOT = .7477E-4
MEAN_MOTION_DDOT = 0

CCSDS_OMM_VERS = 2.0
CREATION_DATE  = 
ORIGINATOR     = 

OBJECT_NAME    = CZ-2C R/B
OBJECT_ID      = 2004-046B
CENTER_NAME    = EARTH
REF_FRAME      = TEME
TIME_SYSTEM    = UTC
MEAN_ELEMENT_THEORY = SGP/SGP4

EPOCH          = 2026-02-01T19:04:47.258688
MEAN_MOTION    = 14.26978145
ECCENTRICITY   = .01381881
INCLINATION    = 98.1999
RA_OF_ASC_NODE = 310.0074
ARG_OF_PERICENTER = 261.0083
MEAN_ANOMALY   = 97.5437

EPHEMERIS_TYPE = 0
CLASSIFICATION_TYPE = U
NORAD_CAT_ID   = 28480
ELEMENT_SET_NO = 999
REV_AT_EPOCH   = 10338
BSTAR          = .79592035E-4
MEAN_MOTION_DOT = .172E-5
MEAN_MOTION_DDOT = 0

CCSDS_OMM_VERS = 2.0
CREATION_DATE  = 
ORIGINATOR     = 

OBJECT_NAME    = ARIANE 5 R/B
OBJECT_ID      = 2004-049H
CENTER_NAME    = EARTH
REF_FRAME      = TEME
TIME_SYSTEM    = UTC
MEAN_ELEMENT_THEORY = SGP/SGP4

EPOCH          = 2026-02-01T22:14:08.409408
MEAN_MOTION    = 14.85185304
ECCENTRICITY   = .0085468
INCLINATION    = 98.2570
RA_OF_ASC_NODE = 200.0601
ARG_OF_PERICENTER = 106.7939
MEAN_ANOMALY   = 254.2673

EPHEMERIS_TYPE = 0
CLASSIFICATION_TYPE = U
NORAD_CAT_ID   = 28499
ELEMENT_SET_NO = 999
REV_AT_EPOCH   = 14048
BSTAR          = .1317156E-3
MEAN_MOTION_DOT = .1141E-4
MEAN_MOTION_DDOT = 0

CCSDS_OMM_VERS = 2.0
CREATION_DATE  = 
ORIGINATOR     = 

OBJECT_NAME    = CZ-2D R/B
OBJECT_ID      = 2005-024B
CENTER_NAME    = EARTH
REF_FRAME      = TEME
TIME_SYSTEM    = UTC
MEAN_ELEMENT_THEORY = SGP/SGP4

EPOCH          = 2026-02-01T22:43:10.869312
MEAN_MOTION    = 15.57007435
ECCENTRICITY   = .00067809
INCLINATION    = 97.3609
RA_OF_ASC_NODE = 46.8690
ARG_OF_PERICENTER = 133.2745
MEAN_ANOMALY   = 226.9077

EPHEMERIS_TYPE = 0
CLASSIFICATION_TYPE = U
NORAD_CAT_ID   = 28738
ELEMENT_SET_NO = 999
REV_AT_EPOCH   = 13421
BSTAR          = .49120191E-3
MEAN_MOTION_DOT = .35488E-3
MEAN_MOTION_DDOT = 0

