IDEFIX & ARIANE 42P R/B 
1 27422U 02021B   26032.83636870  .00000322  00000+0  13900-3 0  9998
2 27422  98.5836 331.8796 0010832 296.3770  63.6300 14.30998426238897
AQUA                    
1 27424U 02022A   26032.95251806  .00001095  00000+0  22881-3 0  9992
2 27424  98.4110 359.6849 0001712  59.1978 337.0718 14.61882673263510
CZ-4B R/B               
1 27432U 02024C   26032.79689194  .00000058  00000+0  52714-4 0  9997
2 27432  98.8915  86.3709 0051009 124.4368 350.4889 14.14540698224160
MIDORI II (ADEOS-II)    
1 27597U 02056A   26032.89091019  .00000340  00000+0  15135-3 0  9997
2 27597  98.7707 351.1363 0002104  93.1358 267.0064 14.29255768205188
H-2A R/B                
1 27601U 02056E   26032.90703042  .00000338  00000+0  13338-3 0  9991
2 27601  98.3137 354.6493 0069006 268.3274 156.5106 14.33732952208986
CZ-4B R/B               
1 28059U 03049C   26032.96775433  .00000509  00000+0  12832-3 0  9999
2 28059  98.6836  26.4827 0047875 342.1313  17.8197 14.54977430181404
CZ-2C R/B               
1 28222U 04012C   26032.74286441  .00042006  00000+0  50812-3 0  9992
2 28222  97.7325  94.7330 0016617  84.2969 276.0181 15.60419961198663
SL-16 R/B               
1 28353U 04021B   26032.95924718 -.00000151  00000+0 -54023-4 0  9992
2 28353  71.0012 307.4784 0002724  99.0832 261.0599 14.14589405117780
CZ-4B R/B               
1 28415U 04035C   26032.64645860  .00007477  00000+0  26859-3 0  9991
2 28415  97.3549  67.3303 0034340  96.4370 264.0782 15.28379261174403
CZ-2C R/B               
1 28480U 04046B   26032.79499142  .00000172  00000+0  79592-4 0  9999
2 28480  98.1999 310.0074 0138188 261.0083  97.5437 14.26978145103380
ARIANE 5 R/B            
1 28499U 04049H   26032.92648622  .00001141  00000+0  13172-3 0  9994
2 28499  98.2570 200.0601 0085468 106.7939 254.2673 14.85185304140485
CZ-2D R/B               
1 28738U 05024B   26032.94665358  .00035488  00000+0  49120-3 0  9994
2 28738  97.3609  46.8690 0006780 133.2745 226.9077 15.57007435134214
